[{"OBJECT_NAME":"OBJECT C","OBJECT_ID":"2024-092C","EPOCH":"2026-03-09T23:10:26.961312","MEAN_MOTION":15.27308901,"ECCENTRICITY":0.00097974,"INCLINATION":97.6475,"RA_OF_ASC_NODE":197.1606,"ARG_OF_PERICENTER":169.1353,"MEAN_ANOMALY":191.0098,"EPHEMERIS_TYPE":0,"CLASSIFICATION_TYPE":"U","NORAD_CAT_ID":59775,"ELEMENT_SET_NO":999,"REV_AT_EPOCH":10042,"BSTAR":0.00057925748,"MEAN_MOTION_DOT":0.00015454,"MEAN_MOTION_DDOT":0},{"OBJECT_NAME":"STARLINK-32320","OBJECT_ID":"2024-191T","EPOCH":"2026-03-09T05:54:46.806912","MEAN_MOTION":15.2757081,"ECCENTRICITY":0.00017983,"INCLINATION":43.0044,"RA_OF_ASC_NODE":160.9013,"ARG_OF_PERICENTER":261.631,"MEAN_ANOMALY":98.4338,"EPHEMERIS_TYPE":0,"CLASSIFICATION_TYPE":"U","NORAD_CAT_ID":61638,"ELEMENT_SET_NO":999,"REV_AT_EPOCH":7742,"BSTAR":-1.0454742e-5,"MEAN_MOTION_DOT":-5.5e-6,"MEAN_MOTION_DDOT":0}]
